[
    {
        "Altitude(m)": 715046.1870280729,
        "Argument of Periapsis(deg)": 0.004556048474650827,
        "Eccentricity": 0.0,
        "Inclination(deg)": 45.0,
        "Latitude(deg)": -38.30429294395345,
        "Longitude(deg)": 107.92907150087235,
        "Mean Anomaly(deg)": -60.84121334100759,
        "RAAN(deg)": 259.99569922341675,
        "Satellite Name": "Constellation 1 1162",
        "Satellite Number": 1162,
        "Semi-Major Axis(m)": 7083131.272910544,
        "Time(s)": 76
    },
    {
        "Altitude(m)": 715035.2127965267,
        "Argument of Periapsis(deg)": 0.004615996480896233,
        "Eccentricity": 0.0,
        "Inclination(deg)": 45.0,
        "Latitude(deg)": -38.27769843068354,
        "Longitude(deg)": 107.99418861242032,
        "Mean Anomaly(deg)": -60.78051220075773,
        "RAAN(deg)": 259.99564263425117,
        "Satellite Name": "Constellation 1 1162",
        "Satellite Number": 1162,
        "Semi-Major Axis(m)": 7083131.272910544,
        "Time(s)": 77
    },
    {
        "Altitude(m)": 715024.2225814166,
        "Argument of Periapsis(deg)": 0.004675944487141638,
        "Eccentricity": 0.0,
        "Inclination(deg)": 45.0,
        "Latitude(deg)": -38.251062954386946,
        "Longitude(deg)": 108.05925534369122,
        "Mean Anomaly(deg)": -60.719811060507844,
        "RAAN(deg)": 259.9955860450856,
        "Satellite Name": "Constellation 1 1162",
        "Satellite Number": 1162,
        "Semi-Major Axis(m)": 7083131.272910544,
        "Time(s)": 78
    },
    {
        "Altitude(m)": 715013.2164226198,
        "Argument of Periapsis(deg)": 0.004735892493387044,
        "Eccentricity": 0.0,
        "Inclination(deg)": 45.0,
        "Latitude(deg)": -38.22438658289649,
        "Longitude(deg)": 108.12427170241271,
        "Mean Anomaly(deg)": -60.65910992025788,
        "RAAN(deg)": 259.99552945592,
        "Satellite Name": "Constellation 1 1162",
        "Satellite Number": 1162,
        "Semi-Major Axis(m)": 7083131.272910544,
        "Time(s)": 79
    },
    {
        "Altitude(m)": 715002.1943600599,
        "Argument of Periapsis(deg)": 0.004795840499632449,
        "Eccentricity": 0.0,
        "Inclination(deg)": 45.0,
        "Latitude(deg)": -38.1976693840158,
        "Longitude(deg)": 108.18923769666365,
        "Mean Anomaly(deg)": -60.59840878000805,
        "RAAN(deg)": 259.9954728667544,
        "Satellite Name": "Constellation 1 1162",
        "Satellite Number": 1162,
        "Semi-Major Axis(m)": 7083131.272910544,
        "Time(s)": 80
    },
    {
        "Altitude(m)": 714991.1564337289,
        "Argument of Periapsis(deg)": 0.004855788505877855,
        "Eccentricity": 0.0,
        "Inclination(deg)": 45.0,
        "Latitude(deg)": -38.170911425518916,
        "Longitude(deg)": 108.2541533348734,
        "Mean Anomaly(deg)": -60.53770763975819,
        "RAAN(deg)": 259.9954162775889,
        "Satellite Name": "Constellation 1 1162",
        "Satellite Number": 1162,
        "Semi-Major Axis(m)": 7083131.272910544,
        "Time(s)": 81
    },
    {
        "Altitude(m)": 714980.1026836648,
        "Argument of Periapsis(deg)": 0.00491573651212326,
        "Eccentricity": 0.0,
        "Inclination(deg)": 45.0,
        "Latitude(deg)": -38.14411277514955,
        "Longitude(deg)": 108.31901845772363,
        "Mean Anomaly(deg)": -60.47700649950823,
        "RAAN(deg)": 259.9953596884233,
        "Satellite Name": "Constellation 1 1162",
        "Satellite Number": 1162,
        "Semi-Major Axis(m)": 7083131.272910544,
        "Time(s)": 82
    },
    {
        "Altitude(m)": 714969.0331499649,
        "Argument of Periapsis(deg)": 0.004975684518368666,
        "Eccentricity": 0.0,
        "Inclination(deg)": 45.0,
        "Latitude(deg)": -38.11727350062138,
        "Longitude(deg)": 108.38383341053299,
        "Mean Anomaly(deg)": -60.41630535925833,
        "RAAN(deg)": 259.99530309925774,
        "Satellite Name": "Constellation 1 1162",
        "Satellite Number": 1162,
        "Semi-Major Axis(m)": 7083131.272910544,
        "Time(s)": 83
    },
    {
        "Altitude(m)": 714957.9478727676,
        "Argument of Periapsis(deg)": 0.005035632524614072,
        "Eccentricity": 0.0,
        "Inclination(deg)": 45.0,
        "Latitude(deg)": -38.09039366961684,
        "Longitude(deg)": 108.44859803467637,
        "Mean Anomaly(deg)": -60.35560421900847,
        "RAAN(deg)": 259.99524651009216,
        "Satellite Name": "Constellation 1 1162",
        "Satellite Number": 1162,
        "Semi-Major Axis(m)": 7083131.272910544,
        "Time(s)": 84
    },
    {
        "Altitude(m)": 714946.8468922838,
        "Argument of Periapsis(deg)": 0.0050955805308594785,
        "Eccentricity": 0.0,
        "Inclination(deg)": 45.0,
        "Latitude(deg)": -38.063473349787024,
        "Longitude(deg)": 108.51331233996974,
        "Mean Anomaly(deg)": -60.29490307875854,
        "RAAN(deg)": 259.9951899209266,
        "Satellite Name": "Constellation 1 1162",
        "Satellite Number": 1162,
        "Semi-Major Axis(m)": 7083131.272910544,
        "Time(s)": 85
    },
    {
        "Altitude(m)": 714935.7302487617,
        "Argument of Periapsis(deg)": 0.005155528537104883,
        "Eccentricity": 0.0,
        "Inclination(deg)": 45.0,
        "Latitude(deg)": -38.03651260875145,
        "Longitude(deg)": 108.57797633657184,
        "Mean Anomaly(deg)": -60.234201938508676,
        "RAAN(deg)": 259.99513333176105,
        "Satellite Name": "Constellation 1 1162",
        "Satellite Number": 1162,
        "Semi-Major Axis(m)": 7083131.272910544,
        "Time(s)": 86
    },
    {
        "Altitude(m)": 714924.5979825115,
        "Argument of Periapsis(deg)": 0.0052154765433502885,
        "Eccentricity": 0.0,
        "Inclination(deg)": 45.0,
        "Latitude(deg)": -38.009511514097305,
        "Longitude(deg)": 108.64259003498353,
        "Mean Anomaly(deg)": -60.17350079825874,
        "RAAN(deg)": 259.9950767425955,
        "Satellite Name": "Constellation 1 1162",
        "Satellite Number": 1162,
        "Semi-Major Axis(m)": 7083131.272910544,
        "Time(s)": 87
    },
    {
        "Altitude(m)": 714913.4501338995,
        "Argument of Periapsis(deg)": 0.005275424549595694,
        "Eccentricity": 0.0,
        "Inclination(deg)": 45.0,
        "Latitude(deg)": -37.982470133379216,
        "Longitude(deg)": 108.70715344604548,
        "Mean Anomaly(deg)": -60.11279965800883,
        "RAAN(deg)": 259.9950201534299,
        "Satellite Name": "Constellation 1 1162",
        "Satellite Number": 1162,
        "Semi-Major Axis(m)": 7083131.272910544,
        "Time(s)": 88
    },
    {
        "Altitude(m)": 714902.2867433361,
        "Argument of Periapsis(deg)": 0.0053353725558411,
        "Eccentricity": 0.0,
        "Inclination(deg)": 45.0,
        "Latitude(deg)": -37.95538853411878,
        "Longitude(deg)": 108.77166641284043,
        "Mean Anomaly(deg)": -60.052098517758985,
        "RAAN(deg)": 259.9949635642643,
        "Satellite Name": "Constellation 1 1162",
        "Satellite Number": 1162,
        "Semi-Major Axis(m)": 7083131.272910544,
        "Time(s)": 89
    },
    {
        "Altitude(m)": 714891.10785129,
        "Argument of Periapsis(deg)": 0.005395320562086505,
        "Eccentricity": 0.0,
        "Inclination(deg)": 45.0,
        "Latitude(deg)": -37.928266783804325,
        "Longitude(deg)": 108.83612928307907,
        "Mean Anomaly(deg)": -59.991397377509124,
        "RAAN(deg)": 259.99490697509873,
        "Satellite Name": "Constellation 1 1162",
        "Satellite Number": 1162,
        "Semi-Major Axis(m)": 7083131.272910544,
        "Time(s)": 90
    },
    {
        "Altitude(m)": 714879.9134982805,
        "Argument of Periapsis(deg)": 0.00545526856833191,
        "Eccentricity": 0.0,
        "Inclination(deg)": 45.0,
        "Latitude(deg)": -37.90110494989012,
        "Longitude(deg)": 108.90054190051758,
        "Mean Anomaly(deg)": -59.93069623725916,
        "RAAN(deg)": 259.9948503859332,
        "Satellite Name": "Constellation 1 1162",
        "Satellite Number": 1162,
        "Semi-Major Axis(m)": 7083131.272910544,
        "Time(s)": 91
    },
    {
        "Altitude(m)": 714868.7037248779,
        "Argument of Periapsis(deg)": 0.005515216574577317,
        "Eccentricity": 0.0,
        "Inclination(deg)": 45.0,
        "Latitude(deg)": -37.87390309979633,
        "Longitude(deg)": 108.96490427734317,
        "Mean Anomaly(deg)": -59.86999509700923,
        "RAAN(deg)": 259.9947937967676,
        "Satellite Name": "Constellation 1 1162",
        "Satellite Number": 1162,
        "Semi-Major Axis(m)": 7083131.272910544,
        "Time(s)": 92
    },
    {
        "Altitude(m)": 714857.4785717104,
        "Argument of Periapsis(deg)": 0.005575164580822722,
        "Eccentricity": 0.0,
        "Inclination(deg)": 45.0,
        "Latitude(deg)": -37.84666130090853,
        "Longitude(deg)": 109.02921642607613,
        "Mean Anomaly(deg)": -59.80929395675937,
        "RAAN(deg)": 259.9947372076021,
        "Satellite Name": "Constellation 1 1162",
        "Satellite Number": 1162,
        "Semi-Major Axis(m)": 7083131.272910544,
        "Time(s)": 93
    },
    {
        "Altitude(m)": 714846.2380794531,
        "Argument of Periapsis(deg)": 0.005635112587068129,
        "Eccentricity": 0.0,
        "Inclination(deg)": 45.0,
        "Latitude(deg)": -37.81937962057712,
        "Longitude(deg)": 109.09347835956858,
        "Mean Anomaly(deg)": -59.748592816509486,
        "RAAN(deg)": 259.99468061843646,
        "Satellite Name": "Constellation 1 1162",
        "Satellite Number": 1162,
        "Semi-Major Axis(m)": 7083131.272910544,
        "Time(s)": 94
    }
]